{"type": "FeatureCollection", "features": [ {"type": "Feature", "properties": {"norad_id": 31462, "name": "FENGYUN 1C DEB", "group": "fengyun-1c-debris", "lat": -14.36166908326884, "lon": -0.37766973669308046, "alt_km": 864.3234269125205, "timestamp": "2025-12-04T17:48:40.448390+00:00", "meta": {"OBJECT_NAME": "FENGYUN 1C DEB", "OBJECT_ID": "1999-025BVA", "EPOCH": "2025-12-01T12:26:00.233664", "MEAN_MOTION": 14.12988365, "ECCENTRICITY": 0.00314859, "INCLINATION": 98.6906, "RA_OF_ASC_NODE": 354.2485, "ARG_OF_PERICENTER": 236.8401, "MEAN_ANOMALY": 277.4849, "EPHEMERIS_TYPE": 0, "CLASSIFICATION_TYPE": "U", "NORAD_CAT_ID": 31462, "ELEMENT_SET_NO": 999, "REV_AT_EPOCH": 95697, "BSTAR": 0.00039554017, "MEAN_MOTION_DOT": 6.98e-06, "MEAN_MOTION_DDOT": 0}, "tle": {"line1": "1 31462U 99025BVA 25335.51805826  .00000698  00000+0  39554-3 0  9995", "line2": "2 31462  98.6906 354.2485 0031485 236.8401 277.4849 14.12988365956976"}}, "geometry": {"type": "Point", "coordinates": [-0.37766973669308046, -14.36166908326884]}}, {"type": "Feature", "properties": {"norad_id": 31463, "name": "FENGYUN 1C DEB", "group": "fengyun-1c-debris", "lat": -19.80001314418378, "lon": -36.71099116198478, "alt_km": 752.2962743454909, "timestamp": "2025-12-04T17:48:40.448400+00:00", "meta": {"OBJECT_NAME": "FENGYUN 1C DEB", "OBJECT_ID": "1999-025BVB", "EPOCH": "2025-12-01T16:22:11.548704", "MEAN_MOTION": 14.36878903, "ECCENTRICITY": 0.02141373, "INCLINATION": 99.0794, "RA_OF_ASC_NODE": 316.76, "ARG_OF_PERICENTER": 72.118, "MEAN_ANOMALY": 290.3231, "EPHEMERIS_TYPE": 0, "CLASSIFICATION_TYPE": "U", "NORAD_CAT_ID": 31463, "ELEMENT_SET_NO": 999, "REV_AT_EPOCH": 64561, "BSTAR": 0.00046325906, "MEAN_MOTION_DOT": 1.728e-05, "MEAN_MOTION_DDOT": 0}, "tle": {"line1": "1 31463U 99025BVB 25335.68207811  .00001728  00000+0  46326-3 0  9994", "line2": "2 31463  99.0794 316.7600 0214137  72.1180 290.3231 14.36878903645618"}}, "geometry": {"type": "Point", "coordinates": [-36.71099116198478, -19.80001314418378]}}, {"type": "Feature", "properties": {"norad_id": 31464, "name": "FENGYUN 1C DEB", "group": "fengyun-1c-debris", "lat": -54.68753517389158, "lon": 38.29966809537454, "alt_km": 833.7341577840025, "timestamp": "2025-12-04T17:48:40.448410+00:00", "meta": {"OBJECT_NAME": "FENGYUN 1C DEB", "OBJECT_ID": "1999-025BVC", "EPOCH": "2025-12-02T22:27:53.152704", "MEAN_MOTION": 14.12457967, "ECCENTRICITY": 0.00429431, "INCLINATION": 98.7961, "RA_OF_ASC_NODE": 23.9012, "ARG_OF_PERICENTER": 270.6207, "MEAN_ANOMALY": 214.8358, "EPHEMERIS_TYPE": 0, "CLASSIFICATION_TYPE": "U", "NORAD_CAT_ID": 31464, "ELEMENT_SET_NO": 999, "REV_AT_EPOCH": 94541, "BSTAR": 0.00040163785, "MEAN_MOTION_DOT": 7.04e-06, "MEAN_MOTION_DDOT": 0}, "tle": {"line1": "1 31464U 99025BVC 25336.93603186  .00000704  00000+0  40164-3 0  9996", "line2": "2 31464  98.7961  23.9012 0042943 270.6207 214.8358 14.12457967945413"}}, "geometry": {"type": "Point", "coordinates": [38.29966809537454, -54.68753517389158]}}, {"type": "Feature", "properties": {"norad_id": 31466, "name": "FENGYUN 1C DEB", "group": "fengyun-1c-debris", "lat": 25.55759297740293, "lon": -95.90286490242684, "alt_km": 699.378080604638, "timestamp": "2025-12-04T17:48:40.448422+00:00", "meta": {"OBJECT_NAME": "FENGYUN 1C DEB", "OBJECT_ID": "1999-025BVE", "EPOCH": "2025-12-03T01:04:01.231680", "MEAN_MOTION": 14.18491736, "ECCENTRICITY": 0.02996915, "INCLINATION": 99.0852, "RA_OF_ASC_NODE": 266.7448, "ARG_OF_PERICENTER": 336.5012, "MEAN_ANOMALY": 22.2703, "EPHEMERIS_TYPE": 0, "CLASSIFICATION_TYPE": "U", "NORAD_CAT_ID": 31466, "ELEMENT_SET_NO": 999, "REV_AT_EPOCH": 96191, "BSTAR": 0.00038951003, "MEAN_MOTION_DOT": 1.201e-05, "MEAN_MOTION_DDOT": 0}, "tle": {"line1": "1 31466U 99025BVE 25337.04445870  .00001201  00000+0  38951-3 0  9999", "line2": "2 31466  99.0852 266.7448 0299691 336.5012  22.2703 14.18491736961914"}}, "geometry": {"type": "Point", "coordinates": [-95.90286490242684, 25.55759297740293]}}, {"type": "Feature", "properties": {"norad_id": 31468, "name": "FENGYUN 1C DEB", "group": "fengyun-1c-debris", "lat": 17.707978346844172, "lon": -27.500941632819462, "alt_km": 854.6090174520768, "timestamp": "2025-12-04T17:48:40.448433+00:00", "meta": {"OBJECT_NAME": "FENGYUN 1C DEB", "OBJECT_ID": "1999-025BVG", "EPOCH": "2025-12-04T06:06:18.457920", "MEAN_MOTION": 14.46550399, "ECCENTRICITY": 0.01660288, "INCLINATION": 98.1667, "RA_OF_ASC_NODE": 334.6567, "ARG_OF_PERICENTER": 192.6316, "MEAN_ANOMALY": 167.0693, "EPHEMERIS_TYPE": 0, "CLASSIFICATION_TYPE": "U", "NORAD_CAT_ID": 31468, "ELEMENT_SET_NO": 999, "REV_AT_EPOCH": 67249, "BSTAR": 0.00082273645, "MEAN_MOTION_DOT": 3.472e-05, "MEAN_MOTION_DDOT": 0}, "tle": {"line1": "1 31468U 99025BVG 25338.25438030  .00003472  00000+0  82274-3 0  9994", "line2": "2 31468  98.1667 334.6567 0166028 192.6316 167.0693 14.46550399672492"}}, "geometry": {"type": "Point", "coordinates": [-27.500941632819462, 17.707978346844172]}}, {"type": "Feature", "properties": {"norad_id": 31473, "name": "FENGYUN 1C DEB", "group": "fengyun-1c-debris", "lat": -68.56235843063521, "lon": 34.47499655422117, "alt_km": 814.9333467342067, "timestamp": "2025-12-04T17:48:40.448443+00:00", "meta": {"OBJECT_NAME": "FENGYUN 1C DEB", "OBJECT_ID": "1999-025BVM", "EPOCH": "2025-11-30T20:53:14.785728", "MEAN_MOTION": 14.296526, "ECCENTRICITY": 0.00655797, "INCLINATION": 98.5473, "RA_OF_ASC_NODE": 8.1551, "ARG_OF_PERICENTER": 49.9746, "MEAN_ANOMALY": 124.3873, "EPHEMERIS_TYPE": 0, "CLASSIFICATION_TYPE": "U", "NORAD_CAT_ID": 31473, "ELEMENT_SET_NO": 999, "REV_AT_EPOCH": 69351, "BSTAR": 0.0014064664, "MEAN_MOTION_DOT": 3.647e-05, "MEAN_MOTION_DDOT": 0}, "tle": {"line1": "1 31473U 99025BVM 25334.87031002  .00003647  00000+0  14065-2 0  9998", "line2": "2 31473  98.5473   8.1551 0065579  49.9746 124.3873 14.29652600693514"}}, "geometry": {"type": "Point", "coordinates": [34.47499655422117, -68.56235843063521]}}, {"type": "Feature", "properties": {"norad_id": 31474, "name": "FENGYUN 1C DEB", "group": "fengyun-1c-debris", "lat": 45.11643466495932, "lon": 15.156041757574341, "alt_km": 905.2194551165512, "timestamp": "2025-12-04T17:48:40.448454+00:00", "meta": {"OBJECT_NAME": "FENGYUN 1C DEB", "OBJECT_ID": "1999-025BVN", "EPOCH": "2025-12-03T22:51:54.146592", "MEAN_MOTION": 14.10527965, "ECCENTRICITY": 0.00713766, "INCLINATION": 99.145, "RA_OF_ASC_NODE": 23.661, "ARG_OF_PERICENTER": 230.2897, "MEAN_ANOMALY": 129.1967, "EPHEMERIS_TYPE": 0, "CLASSIFICATION_TYPE": "U", "NORAD_CAT_ID": 31474, "ELEMENT_SET_NO": 999, "REV_AT_EPOCH": 94846, "BSTAR": 0.0024034382, "MEAN_MOTION_DOT": 4.34e-05, "MEAN_MOTION_DDOT": 0}, "tle": {"line1": "1 31474U 99025BVN 25337.95271003  .00004340  00000+0  24034-2 0  9996", "line2": "2 31474  99.1450  23.6610 0071376 230.2897 129.1967 14.10527965948468"}}, "geometry": {"type": "Point", "coordinates": [15.156041757574341, 45.11643466495932]}}, {"type": "Feature", "properties": {"norad_id": 31475, "name": "FENGYUN 1C DEB", "group": "fengyun-1c-debris", "lat": -69.69995578914347, "lon": -107.70725130804729, "alt_km": 911.20901484974, "timestamp": "2025-12-04T17:48:40.448466+00:00", "meta": {"OBJECT_NAME": "FENGYUN 1C DEB", "OBJECT_ID": "1999-025BVP", "EPOCH": "2025-12-03T10:25:51.057408", "MEAN_MOTION": 14.38132444, "ECCENTRICITY": 0.02114587, "INCLINATION": 98.9405, "RA_OF_ASC_NODE": 225.7449, "ARG_OF_PERICENTER": 134.4708, "MEAN_ANOMALY": 227.3988, "EPHEMERIS_TYPE": 0, "CLASSIFICATION_TYPE": "U", "NORAD_CAT_ID": 31475, "ELEMENT_SET_NO": 999, "REV_AT_EPOCH": 95945, "BSTAR": 0.00080491968, "MEAN_MOTION_DOT": 3.112e-05, "MEAN_MOTION_DDOT": 0}, "tle": {"line1": "1 31475U 99025BVP 25337.43461872  .00003112  00000+0  80492-3 0  9992", "line2": "2 31475  98.9405 225.7449 0211458 134.4708 227.3988 14.38132444959453"}}, "geometry": {"type": "Point", "coordinates": [-107.70725130804729, -69.69995578914347]}}, {"type": "Feature", "properties": {"norad_id": 31476, "name": "FENGYUN 1C DEB", "group": "fengyun-1c-debris", "lat": -6.129156509137549, "lon": -128.7941634017982, "alt_km": 784.3625043887832, "timestamp": "2025-12-04T17:48:40.448476+00:00", "meta": {"OBJECT_NAME": "FENGYUN 1C DEB", "OBJECT_ID": "1999-025BVQ", "EPOCH": "2025-12-03T10:32:27.168576", "MEAN_MOTION": 14.21995553, "ECCENTRICITY": 0.00531388, "INCLINATION": 98.899, "RA_OF_ASC_NODE": 50.8557, "ARG_OF_PERICENTER": 197.9063, "MEAN_ANOMALY": 162.0243, "EPHEMERIS_TYPE": 0, "CLASSIFICATION_TYPE": "U", "NORAD_CAT_ID": 31476, "ELEMENT_SET_NO": 999, "REV_AT_EPOCH": 95567, "BSTAR": 0.0028194124, "MEAN_MOTION_DOT": 6.279e-05, "MEAN_MOTION_DDOT": 0}, "tle": {"line1": "1 31476U 99025BVQ 25337.43920334  .00006279  00000+0  28194-2 0  9993", "line2": "2 31476  98.8990  50.8557 0053138 197.9063 162.0243 14.21995553955675"}}, "geometry": {"type": "Point", "coordinates": [-128.7941634017982, -6.129156509137549]}}, {"type": "Feature", "properties": {"norad_id": 31477, "name": "FENGYUN 1C DEB", "group": "fengyun-1c-debris", "lat": 56.15658357577901, "lon": 162.1278549284837, "alt_km": 852.1720586914598, "timestamp": "2025-12-04T17:48:40.448488+00:00", "meta": {"OBJECT_NAME": "FENGYUN 1C DEB", "OBJECT_ID": "1999-025BVR", "EPOCH": "2025-12-04T05:15:25.303104", "MEAN_MOTION": 14.02913829, "ECCENTRICITY": 0.01107014, "INCLINATION": 98.8848, "RA_OF_ASC_NODE": 328.1272, "ARG_OF_PERICENTER": 52.5539, "MEAN_ANOMALY": 308.5638, "EPHEMERIS_TYPE": 0, "CLASSIFICATION_TYPE": "U", "NORAD_CAT_ID": 31477, "ELEMENT_SET_NO": 999, "REV_AT_EPOCH": 95284, "BSTAR": 0.00028441828, "MEAN_MOTION_DOT": 4.23e-06, "MEAN_MOTION_DDOT": 0}, "tle": {"line1": "1 31477U 99025BVR 25338.21904286  .00000423  00000+0  28442-3 0  9991", "line2": "2 31477  98.8848 328.1272 0110701  52.5539 308.5638 14.02913829952843"}}, "geometry": {"type": "Point", "coordinates": [162.1278549284837, 56.15658357577901]}}]}